{
  "type": "FeatureCollection",
  "features": [
    {
      "type": "Feature",
      "properties": {
        "norad_id": 66541,
        "name": "STARLINK-35796",
        "group": "last-30-days",
        "lat": -37.03179950249087,
        "lon": 22.341382945438877,
        "alt_km": 404.07494440674054,
        "timestamp": "2025-12-08T21:31:03.447397+00:00",
        "meta_object_name": "STARLINK-35796",
        "meta_object_id": "2025-265AB",
        "meta_epoch": "2025-12-08T14:00:01.999872",
        "meta_mean_motion": 15.56464746,
        "meta_eccentricity": 0.00014906,
        "meta_inclination": 43.0003,
        "meta_ra_of_asc_node": 78.2444,
        "meta_arg_of_pericenter": 280.397,
        "meta_mean_anomaly": 61.2703,
        "meta_ephemeris_type": 0,
        "meta_classification_type": "U",
        "meta_norad_cat_id": 66541,
        "meta_element_set_no": 999,
        "meta_rev_at_epoch": 432,
        "meta_bstar": -0.031986209,
        "meta_mean_motion_dot": -0.02072351,
        "meta_mean_motion_ddot": 0,
        "tle_line1": "1 66541U 25265AB  25342.58335648 -.02072351  00000+0 -31986-1 0  9999",
        "tle_line2": "2 66541  43.0003  78.2444 0001490 280.3970  61.2703 15.56464746  4322"
      },
      "geometry": {
        "type": "Point",
        "coordinates": [
          22.341382945438877,
          -37.03179950249087
        ]
      }
    },
    {
      "type": "Feature",
      "properties": {
        "norad_id": 66542,
        "name": "STARLINK-35833",
        "group": "last-30-days",
        "lat": -36.24599351904033,
        "lon": 24.512139105369215,
        "alt_km": 404.0046256957776,
        "timestamp": "2025-12-08T21:31:03.447407+00:00",
        "meta_object_name": "STARLINK-35833",
        "meta_object_id": "2025-265AC",
        "meta_epoch": "2025-12-08T14:00:01.999872",
        "meta_mean_motion": 15.56467229,
        "meta_eccentricity": 0.00015332,
        "meta_inclination": 43.0004,
        "meta_ra_of_asc_node": 78.24,
        "meta_arg_of_pericenter": 283.0059,
        "meta_mean_anomaly": 60.5775,
        "meta_ephemeris_type": 0,
        "meta_classification_type": "U",
        "meta_norad_cat_id": 66542,
        "meta_element_set_no": 999,
        "meta_rev_at_epoch": 432,
        "meta_bstar": -0.0320641,
        "meta_mean_motion_dot": -0.0207705,
        "meta_mean_motion_ddot": 0,
        "tle_line1": "1 66542U 25265AC  25342.58335648 -.02077050  00000+0 -32064-1 0  9999",
        "tle_line2": "2 66542  43.0004  78.2400 0001533 283.0059  60.5775 15.56467229  4322"
      },
      "geometry": {
        "type": "Point",
        "coordinates": [
          24.512139105369215,
          -36.24599351904033
        ]
      }
    },
    {
      "type": "Feature",
      "properties": {
        "norad_id": 66543,
        "name": "STARLINK-35315",
        "group": "last-30-days",
        "lat": -35.42110203445796,
        "lon": 26.638561221778872,
        "alt_km": 403.96587738583185,
        "timestamp": "2025-12-08T21:31:03.447452+00:00",
        "meta_object_name": "STARLINK-35315",
        "meta_object_id": "2025-265AD",
        "meta_epoch": "2025-12-08T14:00:01.999872",
        "meta_mean_motion": 15.56469842,
        "meta_eccentricity": 0.0001546,
        "meta_inclination": 43.0004,
        "meta_ra_of_asc_node": 78.2346,
        "meta_arg_of_pericenter": 281.8043,
        "meta_mean_anomaly": 63.6931,
        "meta_ephemeris_type": 0,
        "meta_classification_type": "U",
        "meta_norad_cat_id": 66543,
        "meta_element_set_no": 999,
        "meta_rev_at_epoch": 421,
        "meta_bstar": -0.032082718,
        "meta_mean_motion_dot": -0.02078316,
        "meta_mean_motion_ddot": 0,
        "tle_line1": "1 66543U 25265AD  25342.58335648 -.02078316  00000+0 -32083-1 0  9997",
        "tle_line2": "2 66543  43.0004  78.2346 0001546 281.8043  63.6931 15.56469842  4214"
      },
      "geometry": {
        "type": "Point",
        "coordinates": [
          26.638561221778872,
          -35.42110203445796
        ]
      }
    },
    {
      "type": "Feature",
      "properties": {
        "norad_id": 66544,
        "name": "STARLINK-35728",
        "group": "last-30-days",
        "lat": -34.55879182304364,
        "lon": 28.723121076629024,
        "alt_km": 403.99838232904494,
        "timestamp": "2025-12-08T21:31:03.447465+00:00",
        "meta_object_name": "STARLINK-35728",
        "meta_object_id": "2025-265AE",
        "meta_epoch": "2025-12-08T14:00:01.999872",
        "meta_mean_motion": 15.56466616,
        "meta_eccentricity": 0.00014688,
        "meta_inclination": 43.0003,
        "meta_ra_of_asc_node": 78.23,
        "meta_arg_of_pericenter": 280.2779,
        "meta_mean_anomaly": 67.1401,
        "meta_ephemeris_type": 0,
        "meta_classification_type": "U",
        "meta_norad_cat_id": 66544,
        "meta_element_set_no": 999,
        "meta_rev_at_epoch": 432,
        "meta_bstar": -0.032043592,
        "meta_mean_motion_dot": -0.02075781,
        "meta_mean_motion_ddot": 0,
        "tle_line1": "1 66544U 25265AE  25342.58335648 -.02075781  00000+0 -32044-1 0  9998",
        "tle_line2": "2 66544  43.0003  78.2300 0001468 280.2779  67.1401 15.56466616  4325"
      },
      "geometry": {
        "type": "Point",
        "coordinates": [
          28.723121076629024,
          -34.55879182304364
        ]
      }
    },
    {
      "type": "Feature",
      "properties": {
        "norad_id": 66545,
        "name": "SHIJIAN-30A",
        "group": "last-30-days",
        "lat": 12.123014942092192,
        "lon": 161.1271248513497,
        "alt_km": 527.2221185175695,
        "timestamp": "2025-12-08T21:31:03.447478+00:00",
        "meta_object_name": "SHIJIAN-30A",
        "meta_object_id": "2025-266A",
        "meta_epoch": "2025-12-08T12:52:55.305408",
        "meta_mean_motion": 15.15519206,
        "meta_eccentricity": 0.00127872,
        "meta_inclination": 51.7994,
        "meta_ra_of_asc_node": 352.5519,
        "meta_arg_of_pericenter": 341.1509,
        "meta_mean_anomaly": 18.8992,
        "meta_ephemeris_type": 0,
        "meta_classification_type": "U",
        "meta_norad_cat_id": 66545,
        "meta_element_set_no": 999,
        "meta_rev_at_epoch": 294,
        "meta_bstar": 0.00071638671,
        "meta_mean_motion_dot": 0.00013486,
        "meta_mean_motion_ddot": 0,
        "tle_line1": "1 66545U 25266A   25342.53675122  .00013486  00000+0  71639-3 0  9994",
        "tle_line2": "2 66545  51.7994 352.5519 0012787 341.1509  18.8992 15.15519206  2948"
      },
      "geometry": {
        "type": "Point",
        "coordinates": [
          161.1271248513497,
          12.123014942092192
        ]
      }
    },
    {
      "type": "Feature",
      "properties": {
        "norad_id": 66546,
        "name": "SHIJIAN-30B",
        "group": "last-30-days",
        "lat": 15.07407231528645,
        "lon": 158.62485485588985,
        "alt_km": 524.8712675920397,
        "timestamp": "2025-12-08T21:31:03.447488+00:00",
        "meta_object_name": "SHIJIAN-30B",
        "meta_object_id": "2025-266B",
        "meta_epoch": "2025-12-08T12:53:58.170912",
        "meta_mean_motion": 15.15608804,
        "meta_eccentricity": 0.0010462,
        "meta_inclination": 51.7977,
        "meta_ra_of_asc_node": 352.554,
        "meta_arg_of_pericenter": 344.2503,
        "meta_mean_anomaly": 15.8147,
        "meta_ephemeris_type": 0,
        "meta_classification_type": "U",
        "meta_norad_cat_id": 66546,
        "meta_element_set_no": 999,
        "meta_rev_at_epoch": 294,
        "meta_bstar": 0.0008296268,
        "meta_mean_motion_dot": 0.00015703,
        "meta_mean_motion_ddot": 0,
        "tle_line1": "1 66546U 25266B   25342.53747883  .00015703  00000+0  82963-3 0  9995",
        "tle_line2": "2 66546  51.7977 352.5540 0010462 344.2503  15.8147 15.15608804  2942"
      },
      "geometry": {
        "type": "Point",
        "coordinates": [
          158.62485485588985,
          15.07407231528645
        ]
      }
    },
    {
      "type": "Feature",
      "properties": {
        "norad_id": 66547,
        "name": "SHIJIAN-30C",
        "group": "last-30-days",
        "lat": 17.91237592227659,
        "lon": 156.13301273015983,
        "alt_km": 525.0541356555077,
        "timestamp": "2025-12-08T21:31:03.447500+00:00",
        "meta_object_name": "SHIJIAN-30C",
        "meta_object_id": "2025-266C",
        "meta_epoch": "2025-12-08T12:54:56.702592",
        "meta_mean_motion": 15.15620129,
        "meta_eccentricity": 0.00113749,
        "meta_inclination": 51.7986,
        "meta_ra_of_asc_node": 352.5596,
        "meta_arg_of_pericenter": 336.5218,
        "meta_mean_anomaly": 23.5237,
        "meta_ephemeris_type": 0,
        "meta_classification_type": "U",
        "meta_norad_cat_id": 66547,
        "meta_element_set_no": 999,
        "meta_rev_at_epoch": 294,
        "meta_bstar": 0.00074377644,
        "meta_mean_motion_dot": 0.0001405,
        "meta_mean_motion_ddot": 0,
        "tle_line1": "1 66547U 25266C   25342.53815628  .00014050  00000+0  74378-3 0  9994",
        "tle_line2": "2 66547  51.7986 352.5596 0011374 336.5218  23.5237 15.15620129  2944"
      },
      "geometry": {
        "type": "Point",
        "coordinates": [
          156.13301273015983,
          17.91237592227659
        ]
      }
    }
  ]
}